{
"type": "FeatureCollection",
"name": "fotos_linha",
"crs": { "type": "name", "properties": { "name": "urn:ogc:def:crs:OGC:1.3:CRS84" } },
"features": [
{ "type": "Feature", "properties": { "faixa_img": 19, "begin": 1745429665, "end": 1745429667 }, "geometry": { "type": "LineString", "coordinates": [ [ -50.206122222222227, -29.9826275 ], [ -50.206033333333338, -29.982735833333333 ], [ -50.205866666666672, -29.982769444444443 ], [ -50.205716666666667, -29.982725 ] ] } },
{ "type": "Feature", "properties": { "faixa_img": 16, "begin": 1745429577, "end": 1745429625 }, "geometry": { "type": "LineString", "coordinates": [ [ -50.20397777777778, -29.983522222222224 ], [ -50.204036111111115, -29.9834 ], [ -50.204113888888891, -29.983294444444443 ], [ -50.204208333333334, -29.9832 ], [ -50.204319444444444, -29.983122222222221 ], [ -50.204452777777782, -29.983055555555556 ], [ -50.204597222222226, -29.983008055555555 ], [ -50.204769444444445, -29.982969444444443 ], [ -50.20494166666667, -29.982933333333332 ], [ -50.205111111111115, -29.982899722222221 ], [ -50.20525555555556, -29.982869444444443 ], [ -50.205397222222224, -29.982841666666666 ], [ -50.205513888888895, -29.982810833333332 ], [ -50.205622222222225, -29.982771944444444 ], [ -50.205716666666667, -29.982725 ], [ -50.2058, -29.982669444444443 ], [ -50.205922222222227, -29.982546944444444 ], [ -50.206041666666671, -29.982377777777778 ], [ -50.206116666666667, -29.982310833333333 ], [ -50.20621388888889, -29.982272222222221 ] ] } },
{ "type": "Feature", "properties": { "faixa_img": 17, "begin": 1745429635, "end": 1745429641 }, "geometry": { "type": "LineString", "coordinates": [ [ -50.206547222222227, -29.982383055555555 ], [ -50.20644166666667, -29.982613888888888 ], [ -50.20635, -29.982666388888887 ], [ -50.206227777777784, -29.982669444444443 ], [ -50.206122222222227, -29.9826275 ], [ -50.206041666666671, -29.982377777777778 ] ] } },
{ "type": "Feature", "properties": { "faixa_img": 22, "begin": 1745429871, "end": 1745429909 }, "geometry": { "type": "LineString", "coordinates": [ [ -50.207586111111112, -29.985855555555556 ], [ -50.207819444444446, -29.985811111111111 ], [ -50.208038888888893, -29.985769444444447 ], [ -50.208238888888893, -29.985733333333336 ], [ -50.208461111111113, -29.985688888888891 ], [ -50.208661111111113, -29.985641666666666 ], [ -50.208866666666673, -29.98556388888889 ], [ -50.209033333333338, -29.985466666666667 ], [ -50.209169444444449, -29.985355555555557 ], [ -50.209255555555558, -29.985236111111114 ], [ -50.209294444444446, -29.985105555555556 ], [ -50.209313888888893, -29.984977777777779 ], [ -50.209227777777784, -29.984741666666668 ] ] } },
{ "type": "Feature", "properties": { "faixa_img": 23, "begin": 1745439337, "end": 1745439581 }, "geometry": { "type": "LineString", "coordinates": [ [ -50.20397777777778, -29.983522222222224 ], [ -50.203847222222223, -29.983505555555556 ], [ -50.203677777777777, -29.983494444444446 ], [ -50.203575, -29.983491666666669 ], [ -50.20346111111111, -29.983486111111112 ], [ -50.20335, -29.983475 ], [ -50.203241666666671, -29.983463888888888 ], [ -50.203136111111114, -29.983455555555558 ], [ -50.202927777777781, -29.983441666666668 ], [ -50.202811111111117, -29.983391666666666 ], [ -50.202722222222228, -29.98332222222222 ], [ -50.202647222222225, -29.98325 ], [ -50.202561111111116, -29.983155555555555 ], [ -50.202469444444446, -29.983077777777776 ], [ -50.20236388888889, -29.983030555555555 ], [ -50.202222222222225, -29.982991388888887 ], [ -50.202097222222228, -29.982975 ], [ -50.20193888888889, -29.982980277777777 ], [ -50.201805555555559, -29.983002777777777 ], [ -50.201666666666668, -29.983019444444444 ], [ -50.201533333333337, -29.983044166666666 ], [ -50.201397222222226, -29.983071944444443 ], [ -50.201283333333336, -29.983102777777777 ], [ -50.201175, -29.983138888888888 ], [ -50.201061111111116, -29.983166666666666 ], [ -50.20086666666667, -29.983222222222221 ], [ -50.200766666666667, -29.98325 ], [ -50.20065, -29.983286111111109 ], [ -50.200544444444446, -29.98332222222222 ], [ -50.20044444444445, -29.983363888888888 ], [ -50.200344444444447, -29.9834 ], [ -50.200222222222223, -29.983447222222225 ], [ -50.200113888888893, -29.983491666666669 ], [ -50.199999722222216, -29.983541666666667 ], [ -50.1999, -29.983577777777779 ], [ -50.199780277777776, -29.983683333333335 ], [ -50.199774722222216, -29.983875 ], [ -50.199796944444444, -29.983980555555558 ], [ -50.199830277777771, -29.984080555555558 ], [ -50.199858333333331, -29.984188888888891 ], [ -50.199885833333333, -29.984286111111111 ], [ -50.199941388888888, -29.984425 ], [ -50.199936111111107, -29.984536111111112 ], [ -50.20001944444445, -29.984691666666667 ], [ -50.200155555555561, -29.984819444444444 ], [ -50.200305555555559, -29.984905555555557 ], [ -50.200472222222224, -29.984966666666669 ], [ -50.200641666666669, -29.985022222222224 ], [ -50.200808333333335, -29.985080555555555 ], [ -50.20095833333334, -29.985163888888891 ], [ -50.201105555555557, -29.98525 ], [ -50.20129166666667, -29.985286111111112 ], [ -50.201397222222226, -29.985305555555556 ], [ -50.2015, -29.98532777777778 ], [ -50.201602777777779, -29.985355555555557 ], [ -50.201772222222225, -29.985436111111113 ], [ -50.201861111111114, -29.985497222222222 ], [ -50.201988888888891, -29.9856 ], [ -50.202086111111115, -29.985683333333334 ], [ -50.202175, -29.985788888888891 ], [ -50.202272222222227, -29.985905555555558 ], [ -50.20236666666667, -29.986047222222222 ], [ -50.20245833333334, -29.986191666666667 ], [ -50.202558333333336, -29.986341666666668 ], [ -50.202663888888893, -29.98645 ], [ -50.202780555555556, -29.986511111111113 ], [ -50.202944444444448, -29.986516666666667 ], [ -50.20312777777778, -29.986508333333333 ], [ -50.203236111111117, -29.98651388888889 ], [ -50.203430555555556, -29.986508333333333 ], [ -50.203547222222227, -29.986516666666667 ], [ -50.203669444444451, -29.986522222222224 ], [ -50.203802777777781, -29.986525 ], [ -50.203930555555559, -29.986519444444447 ], [ -50.204072222222223, -29.986519444444447 ], [ -50.204188888888893, -29.986525 ], [ -50.204333333333338, -29.986516666666667 ], [ -50.204483333333336, -29.986519444444447 ], [ -50.204619444444447, -29.986525 ], [ -50.204747222222224, -29.986527777777777 ], [ -50.204905555555555, -29.986552777777778 ] ] } },
{ "type": "Feature", "properties": { "faixa_img": 20, "begin": 1745429785, "end": 1745429857 }, "geometry": { "type": "LineString", "coordinates": [ [ -50.20397777777778, -29.983522222222224 ], [ -50.203983333333333, -29.983633333333334 ], [ -50.203972222222227, -29.983783333333335 ], [ -50.203991666666667, -29.983947222222223 ], [ -50.204030555555562, -29.984044444444446 ], [ -50.204094444444451, -29.984172222222224 ], [ -50.204247222222222, -29.98435 ], [ -50.204352777777778, -29.984458333333333 ], [ -50.204480555555556, -29.984591666666667 ], [ -50.2046, -29.98471111111111 ], [ -50.204730555555557, -29.984844444444445 ], [ -50.204869444444448, -29.984983333333336 ], [ -50.205005555555559, -29.985125 ], [ -50.205125, -29.985247222222224 ], [ -50.205261111111113, -29.985388888888888 ], [ -50.205386111111117, -29.985519444444446 ], [ -50.205522222222228, -29.985658333333333 ], [ -50.20565, -29.985788888888891 ], [ -50.20578888888889, -29.985905555555558 ], [ -50.205955555555562, -29.985994444444444 ], [ -50.206136111111114, -29.986052777777779 ] ] } },
{ "type": "Feature", "properties": { "faixa_img": 21, "begin": 1745429863, "end": 1745429865 }, "geometry": { "type": "LineString", "coordinates": [ [ -50.206477777777778, -29.9861 ], [ -50.20665, -29.986030555555555 ], [ -50.206905555555558, -29.985983333333333 ], [ -50.20708888888889, -29.985961111111113 ] ] } },
{ "type": "Feature", "properties": { "faixa_img": 48, "begin": 1745443499, "end": 1745443543 }, "geometry": { "type": "LineString", "coordinates": [ [ -50.208419444444445, -29.985975 ], [ -50.208316666666668, -29.985986111111114 ], [ -50.20825277777778, -29.986086111111113 ], [ -50.208158333333337, -29.986213888888891 ], [ -50.207991666666672, -29.986225 ], [ -50.207822222222227, -29.986180555555556 ], [ -50.207669444444448, -29.986269444444446 ], [ -50.207469444444449, -29.986236111111111 ], [ -50.20728888888889, -29.98625 ], [ -50.207122222222225, -29.986191666666667 ], [ -50.207013888888895, -29.986080555555557 ], [ -50.20708888888889, -29.985961111111113 ], [ -50.207213888888894, -29.985930555555555 ], [ -50.20735, -29.985905555555558 ], [ -50.207586111111112, -29.985855555555556 ] ] } },
{ "type": "Feature", "properties": { "faixa_img": 8, "begin": 1745427641, "end": 1745427817 }, "geometry": { "type": "LineString", "coordinates": [ [ -50.220269444444448, -29.987833333333334 ], [ -50.220391666666671, -29.987791666666666 ], [ -50.220608333333338, -29.987755555555555 ], [ -50.220733333333335, -29.987736111111111 ], [ -50.220772222222223, -29.987880555555556 ], [ -50.220783333333337, -29.988069444444445 ], [ -50.22078888888889, -29.988202777777779 ], [ -50.22078888888889, -29.988358333333334 ], [ -50.220772222222223, -29.988536111111113 ], [ -50.220730555555555, -29.988672222222224 ], [ -50.220708333333334, -29.988819444444445 ], [ -50.220694444444447, -29.988969444444447 ], [ -50.220658333333333, -29.989166666666666 ], [ -50.220636111111112, -29.989483333333336 ], [ -50.220616666666672, -29.989675 ], [ -50.220608333333338, -29.989833333333333 ], [ -50.220577777777777, -29.990005555555555 ], [ -50.220533333333336, -29.990316666666669 ], [ -50.220511111111115, -29.990469444444447 ], [ -50.220483333333334, -29.990644444444445 ], [ -50.220491666666668, -29.990786111111113 ], [ -50.220475, -29.991038888888891 ], [ -50.220458333333333, -29.991172222222222 ], [ -50.220438888888893, -29.991283333333335 ], [ -50.220441666666666, -29.991461111111111 ], [ -50.220436111111113, -29.991622222222222 ], [ -50.22045555555556, -29.991780555555557 ], [ -50.220447222222226, -29.992069444444446 ], [ -50.220436111111113, -29.9922 ] ] } },
{ "type": "Feature", "properties": { "faixa_img": 9, "begin": 1745427833, "end": 1745427895 }, "geometry": { "type": "LineString", "coordinates": [ [ -50.220388888888891, -29.992861111111111 ], [ -50.220391666666671, -29.992719444444447 ], [ -50.220402777777778, -29.992597222222223 ], [ -50.220397222222225, -29.992458333333335 ], [ -50.220397222222225, -29.992338888888892 ], [ -50.220436111111113, -29.9922 ] ] } },
{ "type": "Feature", "properties": { "faixa_img": 14, "begin": 1745428725, "end": 1745429107 }, "geometry": { "type": "LineString", "coordinates": [ [ -50.215944444444446, -29.986605555555556 ], [ -50.215652777777784, -29.986608333333333 ], [ -50.215491666666672, -29.986622222222223 ], [ -50.21533055555556, -29.98662777777778 ], [ -50.215177777777782, -29.986644444444444 ], [ -50.21501388888889, -29.98665 ], [ -50.214858333333339, -29.986647222222224 ], [ -50.214747222222222, -29.98663611111111 ], [ -50.214616666666672, -29.986644444444444 ], [ -50.214480555555561, -29.98663611111111 ], [ -50.214325, -29.98662777777778 ], [ -50.214161111111117, -29.986630555555557 ], [ -50.213991666666672, -29.986619444444447 ], [ -50.213794444444446, -29.986608333333333 ], [ -50.213594444444446, -29.986597222222223 ], [ -50.21349444444445, -29.986594444444446 ], [ -50.213286111111117, -29.986597222222223 ], [ -50.2131, -29.986591666666669 ], [ -50.212991666666667, -29.986594444444446 ], [ -50.212786111111114, -29.986602777777779 ], [ -50.212680555555558, -29.986605555555556 ], [ -50.212577777777781, -29.986605555555556 ], [ -50.212475, -29.986605555555556 ], [ -50.212288888888892, -29.986611111111113 ], [ -50.212177777777782, -29.986619444444447 ], [ -50.21199166666667, -29.986619444444447 ], [ -50.211886111111113, -29.98662777777778 ], [ -50.2117, -29.986630555555557 ], [ -50.211533333333335, -29.986661111111111 ], [ -50.211361111111117, -29.98673888888889 ], [ -50.211166666666671, -29.986791666666669 ], [ -50.211041666666667, -29.986794444444445 ], [ -50.210925, -29.986802777777779 ], [ -50.210825, -29.986811111111113 ], [ -50.2107, -29.986805555555556 ], [ -50.210583333333339, -29.986788888888888 ], [ -50.210325, -29.986772222222225 ], [ -50.210302777777784, -29.986880555555558 ], [ -50.210413888888894, -29.986933333333333 ], [ -50.210561111111112, -29.987005555555555 ], [ -50.21071666666667, -29.987091666666668 ], [ -50.210877777777782, -29.987169444444444 ], [ -50.211041666666667, -29.987222222222222 ], [ -50.211213888888892, -29.987261111111113 ], [ -50.211397222222224, -29.987333333333336 ], [ -50.21158888888889, -29.987413888888891 ], [ -50.21168055555556, -29.987452777777779 ], [ -50.211780555555556, -29.987491666666667 ], [ -50.211872222222226, -29.987530555555555 ], [ -50.212036111111111, -29.987608333333334 ], [ -50.212138888888894, -29.987655555555556 ], [ -50.212241666666671, -29.98770277777778 ], [ -50.212413888888889, -29.98778888888889 ], [ -50.212511111111112, -29.987830555555558 ], [ -50.212613888888889, -29.987866666666669 ], [ -50.212713888888892, -29.987908333333333 ], [ -50.212816666666669, -29.987961111111112 ], [ -50.212919444444445, -29.988016666666667 ], [ -50.213022222222222, -29.988066666666668 ], [ -50.213119444444445, -29.988091666666669 ], [ -50.2133, -29.988208333333333 ], [ -50.213391666666666, -29.988261111111111 ], [ -50.21349444444445, -29.988316666666666 ], [ -50.213597222222226, -29.988366666666668 ], [ -50.213708333333336, -29.988422222222223 ], [ -50.213822222222227, -29.988469444444444 ], [ -50.213925, -29.988516666666669 ], [ -50.214038888888894, -29.988558333333334 ], [ -50.214130555555556, -29.9886 ], [ -50.21423333333334, -29.988641666666666 ], [ -50.214355555555557, -29.988691666666668 ], [ -50.214461111111113, -29.988744444444446 ], [ -50.21456944444445, -29.988797222222225 ], [ -50.214683333333333, -29.988847222222223 ], [ -50.2148, -29.988908333333335 ], [ -50.214905555555561, -29.988961111111113 ], [ -50.21501388888889, -29.989016666666668 ], [ -50.215127777777781, -29.989063888888889 ], [ -50.215230555555557, -29.989122222222225 ], [ -50.215347222222228, -29.98917777777778 ], [ -50.215441666666671, -29.989225 ], [ -50.21555, -29.989275 ], [ -50.215655555555557, -29.989319444444444 ], [ -50.215761111111114, -29.989366666666669 ], [ -50.215877777777777, -29.989427777777777 ], [ -50.215986111111114, -29.989488888888889 ], [ -50.216094444444444, -29.989544444444444 ], [ -50.216205555555561, -29.9896 ], [ -50.216319444444444, -29.989644444444444 ], [ -50.2165, -29.989736111111114 ], [ -50.216597222222227, -29.989775 ], [ -50.21671111111111, -29.989813888888889 ], [ -50.216841666666667, -29.989858333333334 ], [ -50.216958333333338, -29.989908333333336 ], [ -50.217052777777781, -29.98995 ], [ -50.217216666666666, -29.990055555555557 ], [ -50.217308333333335, -29.990097222222222 ], [ -50.217508333333335, -29.990180555555558 ], [ -50.2176, -29.990238888888889 ], [ -50.217691666666667, -29.990288888888891 ], [ -50.217794444444444, -29.990338888888889 ], [ -50.217897222222227, -29.990388888888891 ], [ -50.218058333333332, -29.990461111111113 ], [ -50.218233333333337, -29.990538888888889 ], [ -50.218325, -29.990580555555557 ], [ -50.21841666666667, -29.990619444444444 ], [ -50.218511111111113, -29.990661111111113 ], [ -50.218597222222222, -29.990713888888891 ], [ -50.218738888888893, -29.990794444444447 ], [ -50.218891666666671, -29.990866666666669 ], [ -50.219108333333338, -29.990822222222224 ], [ -50.219208333333334, -29.990869444444446 ], [ -50.219311111111111, -29.99095 ], [ -50.219452777777782, -29.991027777777777 ], [ -50.21960277777778, -29.991105555555556 ], [ -50.219761111111112, -29.991186111111112 ], [ -50.219891666666669, -29.991277777777778 ], [ -50.220033333333333, -29.991344444444444 ], [ -50.220441666666666, -29.991461111111111 ] ] } },
{ "type": "Feature", "properties": { "faixa_img": 15, "begin": 1745429375, "end": 1745429499 }, "geometry": { "type": "LineString", "coordinates": [ [ -50.210325, -29.986772222222225 ], [ -50.210119444444445, -29.986805555555556 ], [ -50.210013888888895, -29.986805555555556 ], [ -50.209897222222224, -29.986808333333336 ], [ -50.2097, -29.986808333333336 ], [ -50.209591666666668, -29.986802777777779 ], [ -50.209483333333338, -29.986791666666669 ], [ -50.209277777777778, -29.986769444444445 ], [ -50.209175, -29.986741666666667 ], [ -50.209030555555557, -29.986697222222222 ], [ -50.208922222222228, -29.986680555555555 ], [ -50.208816666666671, -29.986675 ], [ -50.208694444444447, -29.986655555555558 ], [ -50.208591666666671, -29.986644444444444 ], [ -50.208491666666667, -29.986641666666667 ], [ -50.208380555555557, -29.98663611111111 ], [ -50.208269444444447, -29.986633333333334 ], [ -50.20815, -29.986633333333334 ], [ -50.208044444444447, -29.986633333333334 ], [ -50.207936111111117, -29.98662777777778 ], [ -50.20782777777778, -29.986619444444447 ], [ -50.207727777777784, -29.986622222222223 ], [ -50.207625, -29.986630555555557 ], [ -50.20751666666667, -29.986625 ], [ -50.207413888888894, -29.986616666666666 ], [ -50.207313888888891, -29.98661388888889 ], [ -50.207211111111114, -29.986611111111113 ], [ -50.207047222222222, -29.986597222222223 ], [ -50.20686944444445, -29.986602777777779 ], [ -50.206677777777777, -29.986630555555557 ], [ -50.206583333333334, -29.986663888888891 ], [ -50.206391666666669, -29.986716666666666 ], [ -50.206197222222222, -29.986725 ], [ -50.206086111111112, -29.98672777777778 ], [ -50.205975, -29.98672777777778 ], [ -50.205858333333339, -29.986736111111114 ], [ -50.205738888888895, -29.98672777777778 ], [ -50.205616666666671, -29.98672777777778 ], [ -50.205486111111114, -29.986730555555557 ], [ -50.205344444444449, -29.986733333333333 ], [ -50.205233333333339, -29.986733333333333 ], [ -50.205125, -29.986730555555557 ], [ -50.205022222222226, -29.98672777777778 ], [ -50.204875, -29.98675 ], [ -50.205005555555559, -29.986527777777777 ], [ -50.205155555555557, -29.986527777777777 ], [ -50.205294444444448, -29.986533333333334 ], [ -50.205430555555559, -29.986536111111111 ], [ -50.20568055555556, -29.986558333333335 ], [ -50.205819444444444, -29.986561111111111 ], [ -50.205980555555556, -29.986516666666667 ] ] } },
{ "type": "Feature", "properties": { "faixa_img": 13, "begin": 1745428011, "end": 1745428195 }, "geometry": { "type": "LineString", "coordinates": [ [ -50.219472222222223, -29.98795 ], [ -50.219313888888891, -29.987983333333336 ], [ -50.219147222222226, -29.988019444444447 ], [ -50.219005555555555, -29.988016666666667 ], [ -50.218961111111113, -29.988119444444447 ], [ -50.218972222222227, -29.988244444444444 ], [ -50.219077777777777, -29.988366666666668 ], [ -50.219152777777779, -29.988505555555555 ], [ -50.219052777777783, -29.988594444444445 ], [ -50.218869444444444, -29.988686111111111 ], [ -50.218766666666667, -29.988641666666666 ], [ -50.21865, -29.988591666666668 ], [ -50.218538888888894, -29.988583333333334 ], [ -50.218411111111116, -29.988644444444446 ], [ -50.218297222222226, -29.988725 ], [ -50.218161111111115, -29.988738888888889 ], [ -50.218055555555559, -29.988683333333334 ], [ -50.217955555555555, -29.9886 ], [ -50.217833333333338, -29.988491666666668 ], [ -50.217741666666669, -29.988344444444447 ], [ -50.217683333333333, -29.988211111111113 ], [ -50.217655555555559, -29.98810277777778 ], [ -50.217666666666666, -29.987986111111113 ], [ -50.217675, -29.987877777777779 ], [ -50.217705555555554, -29.987775 ], [ -50.21776944444445, -29.987663888888889 ], [ -50.217705555555554, -29.987552777777779 ], [ -50.217555555555556, -29.987497222222224 ], [ -50.217444444444446, -29.987455555555556 ], [ -50.217202777777779, -29.98736388888889 ], [ -50.217102777777782, -29.987322222222222 ], [ -50.216994444444445, -29.987269444444447 ], [ -50.216880555555555, -29.987213888888888 ], [ -50.216775, -29.987172222222224 ], [ -50.216641666666668, -29.987105555555555 ], [ -50.216508333333337, -29.987036111111113 ], [ -50.216363888888893, -29.986955555555557 ], [ -50.216216666666668, -29.986863888888891 ], [ -50.215944444444446, -29.986605555555556 ] ] } },
{ "type": "Feature", "properties": { "faixa_img": 40, "begin": 1745442515, "end": 1745442520 }, "geometry": { "type": "LineString", "coordinates": [ [ -50.221844444444443, -29.98505 ], [ -50.221775, -29.985138888888891 ], [ -50.221683333333338, -29.985208333333333 ], [ -50.221561111111114, -29.985258333333334 ], [ -50.221408333333336, -29.985255555555558 ] ] } },
{ "type": "Feature", "properties": { "faixa_img": 2, "begin": 1745427321, "end": 1745427357 }, "geometry": { "type": "LineString", "coordinates": [ [ -50.221069444444446, -29.985091666666669 ], [ -50.220663888888893, -29.984958333333335 ], [ -50.220758333333336, -29.984875 ], [ -50.220844444444445, -29.9848 ], [ -50.220936111111115, -29.984716666666667 ], [ -50.221113888888894, -29.984566666666666 ], [ -50.22121388888889, -29.984505555555558 ], [ -50.221322222222227, -29.984461111111113 ], [ -50.22143611111111, -29.984441666666669 ], [ -50.221558333333334, -29.984452777777779 ], [ -50.221672222222224, -29.984497222222224 ], [ -50.221775, -29.984561111111113 ], [ -50.221847222222223, -29.984644444444445 ], [ -50.221894444444445, -29.984736111111111 ], [ -50.221913888888892, -29.984841666666668 ], [ -50.221897222222225, -29.984947222222225 ], [ -50.221844444444443, -29.98505 ] ] } },
{ "type": "Feature", "properties": { "faixa_img": 3, "begin": 1745427365, "end": 1745427375 }, "geometry": { "type": "LineString", "coordinates": [ [ -50.221408333333336, -29.985255555555558 ], [ -50.221272222222225, -29.985230555555557 ], [ -50.221166666666669, -29.985175 ], [ -50.221069444444446, -29.985091666666669 ], [ -50.220975, -29.98490277777778 ], [ -50.220936111111115, -29.984716666666667 ] ] } },
{ "type": "Feature", "properties": { "faixa_img": 46, "begin": 1745442642, "end": 1745442658 }, "geometry": { "type": "LineString", "coordinates": [ [ -50.219005555555555, -29.988016666666667 ], [ -50.218822222222222, -29.988 ], [ -50.218669444444444, -29.98795 ], [ -50.218513888888893, -29.987894444444446 ], [ -50.218375, -29.987838888888891 ], [ -50.21821388888889, -29.987777777777779 ], [ -50.218066666666665, -29.987716666666667 ], [ -50.217916666666667, -29.987658333333336 ], [ -50.217705555555554, -29.987552777777779 ] ] } },
{ "type": "Feature", "properties": { "faixa_img": 0, "begin": 1745427103, "end": 1745427185 }, "geometry": { "type": "LineString", "coordinates": [ [ -50.20621388888889, -29.982272222222221 ], [ -50.206458333333337, -29.982316666666666 ], [ -50.206547222222227, -29.982383055555555 ], [ -50.206669444444451, -29.982466388888888 ], [ -50.206783333333334, -29.982533333333333 ], [ -50.206916666666672, -29.982610833333332 ], [ -50.20705, -29.982691388888888 ], [ -50.207202777777781, -29.982783055555554 ], [ -50.207327777777778, -29.98288611111111 ], [ -50.207452777777782, -29.982980277777777 ], [ -50.207588888888893, -29.983096944444444 ], [ -50.207705555555556, -29.98321111111111 ], [ -50.20783055555556, -29.983338888888891 ], [ -50.207961111111111, -29.983472222222222 ], [ -50.208083333333335, -29.983594444444446 ], [ -50.208205555555558, -29.983716666666666 ], [ -50.208322222222222, -29.983833333333333 ], [ -50.208461111111113, -29.983977777777778 ], [ -50.208575, -29.984097222222225 ], [ -50.208705555555561, -29.984230555555555 ], [ -50.208838888888891, -29.984366666666666 ], [ -50.208969444444449, -29.984502777777777 ], [ -50.209097222222226, -29.984630555555558 ], [ -50.209227777777784, -29.984741666666668 ], [ -50.209397222222222, -29.984833333333334 ], [ -50.209569444444448, -29.984872222222222 ], [ -50.209744444444446, -29.984861111111112 ], [ -50.209927777777779, -29.9848 ], [ -50.21008888888889, -29.984694444444447 ], [ -50.210241666666668, -29.984586111111113 ], [ -50.21038055555556, -29.984480555555557 ], [ -50.210536111111111, -29.984372222222223 ], [ -50.210697222222223, -29.984286111111111 ], [ -50.210883333333335, -29.984227777777779 ], [ -50.211108333333335, -29.984197222222225 ], [ -50.211294444444448, -29.984202777777778 ], [ -50.211502777777781, -29.984255555555556 ], [ -50.211716666666668, -29.984333333333336 ], [ -50.211919444444447, -29.984405555555558 ], [ -50.212122222222227, -29.98447777777778 ], [ -50.212322222222227, -29.984555555555556 ], [ -50.212519444444446, -29.984630555555558 ], [ -50.212722222222226, -29.984705555555557 ], [ -50.212986111111114, -29.984736111111111 ] ] } },
{ "type": "Feature", "properties": { "faixa_img": 47, "begin": 1745443407, "end": 1745443447 }, "geometry": { "type": "LineString", "coordinates": [ [ -50.208419444444445, -29.985975 ], [ -50.208602777777777, -29.986052777777779 ], [ -50.208697222222227, -29.986097222222224 ], [ -50.208808333333337, -29.986152777777779 ], [ -50.20905, -29.986255555555555 ], [ -50.209161111111115, -29.986297222222223 ], [ -50.209288888888892, -29.98635 ], [ -50.209405555555556, -29.98640277777778 ], [ -50.209511111111112, -29.986447222222225 ], [ -50.209605555555555, -29.986483333333336 ], [ -50.209697222222225, -29.986536111111111 ], [ -50.209777777777781, -29.986602777777779 ], [ -50.209905555555558, -29.986697222222222 ], [ -50.210119444444445, -29.986805555555556 ] ] } },
{ "type": "Feature", "properties": { "faixa_img": 1, "begin": 1745427189, "end": 1745427311 }, "geometry": { "type": "LineString", "coordinates": [ [ -50.212986111111114, -29.984736111111111 ], [ -50.213138888888892, -29.984861111111112 ], [ -50.213338888888892, -29.984936111111111 ], [ -50.213536111111111, -29.985008333333333 ], [ -50.213711111111117, -29.985077777777779 ], [ -50.213894444444449, -29.985161111111111 ], [ -50.214069444444448, -29.98525 ], [ -50.214244444444446, -29.985363888888891 ], [ -50.2144, -29.985483333333335 ], [ -50.214558333333336, -29.985611111111112 ], [ -50.2147, -29.985727777777779 ], [ -50.214855555555559, -29.985852777777779 ], [ -50.215011111111117, -29.985980555555557 ], [ -50.215161111111115, -29.986119444444444 ], [ -50.215311111111113, -29.986238888888892 ], [ -50.215461111111111, -29.986363888888889 ], [ -50.2156, -29.986469444444445 ], [ -50.215944444444446, -29.986605555555556 ], [ -50.216141666666672, -29.98661388888889 ], [ -50.216333333333338, -29.986605555555556 ], [ -50.216522222222224, -29.986602777777779 ], [ -50.21671388888889, -29.986605555555556 ], [ -50.216905555555556, -29.986602777777779 ], [ -50.217086111111115, -29.986605555555556 ], [ -50.217272222222228, -29.98661388888889 ], [ -50.21745277777778, -29.98661388888889 ], [ -50.217627777777778, -29.98661388888889 ], [ -50.217794444444444, -29.98661388888889 ], [ -50.217972222222222, -29.98661388888889 ], [ -50.218141666666668, -29.98661388888889 ], [ -50.218294444444446, -29.98661388888889 ], [ -50.218463888888891, -29.98661388888889 ], [ -50.218627777777783, -29.986616666666666 ], [ -50.218788888888888, -29.986616666666666 ], [ -50.218936111111113, -29.986616666666666 ], [ -50.219083333333337, -29.986616666666666 ], [ -50.219205555555554, -29.986619444444447 ], [ -50.219313888888891, -29.986619444444447 ], [ -50.219430555555554, -29.986619444444447 ], [ -50.219538888888891, -29.98661388888889 ], [ -50.219652777777782, -29.986583333333336 ], [ -50.219741666666671, -29.986516666666667 ], [ -50.219797222222226, -29.986427777777777 ], [ -50.219830555555561, -29.986241666666668 ], [ -50.219844444444448, -29.986083333333333 ], [ -50.219855555555554, -29.985947222222222 ], [ -50.219991666666665, -29.985566666666667 ], [ -50.220072222222221, -29.985475 ], [ -50.220216666666666, -29.985375 ] ] } },
{ "type": "Feature", "properties": { "faixa_img": 44, "begin": 1745442609, "end": 1745442619 }, "geometry": { "type": "LineString", "coordinates": [ [ -50.221275, -29.987430555555555 ], [ -50.22125, -29.987613888888891 ], [ -50.221122222222228, -29.987686111111113 ], [ -50.220955555555555, -29.987719444444444 ], [ -50.220733333333335, -29.987736111111111 ] ] } },
{ "type": "Feature", "properties": { "faixa_img": 6, "begin": 1745427523, "end": 1745427579 }, "geometry": { "type": "LineString", "coordinates": [ [ -50.222391666666667, -29.985055555555558 ], [ -50.22235, -29.985386111111112 ], [ -50.222280555555557, -29.985483333333335 ], [ -50.222086111111111, -29.985788888888891 ], [ -50.222025, -29.98587777777778 ], [ -50.221963888888894, -29.985980555555557 ], [ -50.221888888888891, -29.986075 ], [ -50.221811111111116, -29.986147222222222 ], [ -50.221725, -29.986216666666667 ], [ -50.221452777777777, -29.986369444444446 ], [ -50.221333333333334, -29.986461111111112 ], [ -50.221236111111111, -29.986566666666668 ], [ -50.221283333333332, -29.986791666666669 ], [ -50.221405555555556, -29.986780555555555 ], [ -50.221525, -29.986763888888891 ], [ -50.221630555555556, -29.986763888888891 ], [ -50.22173055555556, -29.986761111111111 ], [ -50.221919444444445, -29.986797222222222 ] ] } },
{ "type": "Feature", "properties": { "faixa_img": 45, "begin": 1745442628, "end": 1745442636 }, "geometry": { "type": "LineString", "coordinates": [ [ -50.220269444444448, -29.987833333333334 ], [ -50.220113888888889, -29.987855555555555 ], [ -50.219947222222224, -29.987883333333333 ], [ -50.219780555555559, -29.98791388888889 ], [ -50.219616666666667, -29.987941666666668 ], [ -50.219472222222223, -29.98795 ] ] } },
{ "type": "Feature", "properties": { "faixa_img": 7, "begin": 1745427593, "end": 1745427621 }, "geometry": { "type": "LineString", "coordinates": [ [ -50.221283333333332, -29.986791666666669 ], [ -50.221186111111116, -29.986841666666667 ], [ -50.221111111111114, -29.986908333333336 ], [ -50.221061111111112, -29.987002777777779 ], [ -50.221030555555558, -29.987108333333335 ], [ -50.221044444444445, -29.987216666666669 ], [ -50.221111111111114, -29.987344444444446 ], [ -50.221275, -29.987430555555555 ], [ -50.221425, -29.987472222222223 ], [ -50.221697222222225, -29.987516666666668 ] ] } },
{ "type": "Feature", "properties": { "faixa_img": 34, "begin": 1745441471, "end": 1745441527 }, "geometry": { "type": "LineString", "coordinates": [ [ -50.206116666666667, -29.982310833333333 ], [ -50.206077777777779, -29.9821 ], [ -50.206061111111111, -29.981983333333332 ], [ -50.206033333333338, -29.981872222222222 ], [ -50.206, -29.981738888888888 ], [ -50.205975, -29.981608055555554 ], [ -50.205944444444448, -29.981488611111111 ], [ -50.205911111111114, -29.981366666666666 ], [ -50.205880555555559, -29.981244166666666 ], [ -50.20585, -29.981113888888888 ], [ -50.205808333333337, -29.981 ], [ -50.205744444444449, -29.980905555555555 ], [ -50.205736111111115, -29.980772222222221 ], [ -50.205838888888891, -29.98073611111111 ], [ -50.205966666666669, -29.9808025 ], [ -50.205966666666669, -29.980925 ], [ -50.205980555555556, -29.981066388888888 ], [ -50.20601388888889, -29.981219166666666 ], [ -50.206055555555558, -29.981377777777777 ], [ -50.206091666666673, -29.981522222222221 ], [ -50.206125, -29.981647222222222 ], [ -50.206161111111115, -29.981796944444444 ], [ -50.206177777777782, -29.981938888888887 ], [ -50.206458333333337, -29.982316666666666 ] ] } },
{ "type": "Feature", "properties": { "faixa_img": 4, "begin": 1745427397, "end": 1745427471 }, "geometry": { "type": "LineString", "coordinates": [ [ -50.221775, -29.984561111111113 ], [ -50.221933333333332, -29.984527777777778 ], [ -50.22206111111111, -29.984552777777779 ], [ -50.222122222222225, -29.984652777777779 ], [ -50.222138888888892, -29.984811111111114 ], [ -50.22217777777778, -29.984966666666669 ], [ -50.222255555555556, -29.985055555555558 ], [ -50.222391666666667, -29.985055555555558 ], [ -50.222477777777783, -29.984911111111114 ], [ -50.222516666666671, -29.984797222222223 ], [ -50.222497222222223, -29.984641666666668 ], [ -50.222544444444445, -29.984463888888889 ], [ -50.222541666666672, -29.984286111111111 ], [ -50.222583333333333, -29.984194444444444 ], [ -50.22275, -29.983991666666668 ], [ -50.222813888888894, -29.983897222222222 ], [ -50.222827777777781, -29.983794444444445 ], [ -50.222841666666667, -29.983686111111112 ], [ -50.222794444444446, -29.983577777777779 ], [ -50.222763888888892, -29.983477777777779 ] ] } },
{ "type": "Feature", "properties": { "faixa_img": 32, "begin": 1745440892, "end": 1745440900 }, "geometry": { "type": "LineString", "coordinates": [ [ -50.2147, -29.98385 ], [ -50.214572222222223, -29.98393888888889 ], [ -50.214408333333338, -29.984 ], [ -50.214211111111112, -29.984108333333335 ] ] } },
{ "type": "Feature", "properties": { "faixa_img": 38, "begin": 1745442403, "end": 1745442441 }, "geometry": { "type": "LineString", "coordinates": [ [ -50.219855555555554, -29.985947222222222 ], [ -50.219752777777778, -29.985705555555558 ], [ -50.219633333333334, -29.985702777777778 ], [ -50.219483333333336, -29.98565 ], [ -50.219386111111113, -29.9856 ], [ -50.21929166666667, -29.985541666666666 ], [ -50.219205555555554, -29.985480555555558 ], [ -50.219011111111115, -29.985316666666666 ], [ -50.218975, -29.985222222222223 ], [ -50.218972222222227, -29.985063888888888 ], [ -50.219019444444449, -29.984963888888888 ] ] } },
{ "type": "Feature", "properties": { "faixa_img": 39, "begin": 1745442469, "end": 1745442480 }, "geometry": { "type": "LineString", "coordinates": [ [ -50.219902777777783, -29.985175 ], [ -50.220019444444446, -29.985258333333334 ], [ -50.220216666666666, -29.985375 ], [ -50.220308333333335, -29.9853 ], [ -50.220466666666667, -29.985133333333334 ] ] } },
{ "type": "Feature", "properties": { "faixa_img": 36, "begin": 1745442335, "end": 1745442368 }, "geometry": { "type": "LineString", "coordinates": [ [ -50.219902777777783, -29.985175 ], [ -50.219783333333332, -29.985086111111112 ], [ -50.219652777777782, -29.984988888888889 ], [ -50.219527777777778, -29.984936111111111 ], [ -50.219397222222227, -29.98501388888889 ], [ -50.219233333333335, -29.98502777777778 ], [ -50.219144444444446, -29.984916666666667 ], [ -50.219227777777782, -29.9848 ], [ -50.219411111111114, -29.984819444444444 ], [ -50.219527777777778, -29.984936111111111 ] ] } },
{ "type": "Feature", "properties": { "faixa_img": 26, "begin": 1745439737, "end": 1745439763 }, "geometry": { "type": "LineString", "coordinates": [ [ -50.205005555555559, -29.986527777777777 ], [ -50.204905555555555, -29.986552777777778 ], [ -50.204744444444451, -29.986766666666668 ], [ -50.204588888888892, -29.986969444444444 ], [ -50.204511111111117, -29.987083333333334 ], [ -50.204427777777781, -29.987211111111112 ], [ -50.204358333333339, -29.987316666666668 ], [ -50.204208333333334, -29.987552777777779 ], [ -50.204147222222225, -29.987638888888888 ], [ -50.204044444444449, -29.98778888888889 ], [ -50.203822222222222, -29.987747222222222 ] ] } },
{ "type": "Feature", "properties": { "faixa_img": 27, "begin": 1745439777, "end": 1745439807 }, "geometry": { "type": "LineString", "coordinates": [ [ -50.203677777777777, -29.987394444444444 ], [ -50.203763888888894, -29.98748888888889 ], [ -50.203808333333335, -29.987605555555557 ], [ -50.203822222222222, -29.987747222222222 ] ] } },
{ "type": "Feature", "properties": { "faixa_img": 24, "begin": 1745439603, "end": 1745439693 }, "geometry": { "type": "LineString", "coordinates": [ [ -50.206269444444445, -29.986305555555557 ], [ -50.206477777777778, -29.9861 ], [ -50.206325, -29.986130555555558 ], [ -50.206136111111114, -29.986052777777779 ] ] } },
{ "type": "Feature", "properties": { "faixa_img": 31, "begin": 1745440782, "end": 1745440874 }, "geometry": { "type": "LineString", "coordinates": [ [ -50.212986111111114, -29.984736111111111 ], [ -50.213136111111112, -29.984694444444447 ], [ -50.213230555555562, -29.984636111111111 ], [ -50.213366666666673, -29.984519444444445 ], [ -50.213447222222229, -29.98438611111111 ], [ -50.213427777777781, -29.984241666666669 ], [ -50.213466666666669, -29.984127777777779 ], [ -50.213536111111111, -29.9842 ], [ -50.213894444444449, -29.984291666666667 ], [ -50.214041666666667, -29.984227777777779 ], [ -50.214130555555556, -29.984175 ], [ -50.214211111111112, -29.984108333333335 ] ] } },
{ "type": "Feature", "properties": { "faixa_img": 2, "begin": 1745427321, "end": 1745427357 }, "geometry": { "type": "LineString", "coordinates": [ [ -50.220466666666667, -29.985133333333334 ], [ -50.220572222222224, -29.985041666666667 ], [ -50.220663888888893, -29.984958333333335 ] ] } },
{ "type": "Feature", "properties": { "faixa_img": 24, "begin": 1745439603, "end": 1745439693 }, "geometry": { "type": "LineString", "coordinates": [ [ -50.205980555555556, -29.986516666666667 ], [ -50.206186111111116, -29.986372222222222 ], [ -50.206269444444445, -29.986305555555557 ], [ -50.206325, -29.986130555555558 ] ] } },
{ "type": "Feature", "properties": { "faixa_img": 22, "begin": 1745429871, "end": 1745429909 }, "geometry": { "type": "LineString", "coordinates": [ [ -50.209927777777779, -29.9848 ], [ -50.209577777777781, -29.985063888888888 ], [ -50.209466666666671, -29.985116666666666 ], [ -50.209294444444446, -29.985105555555556 ] ] } },
{ "type": "Feature", "properties": { "faixa_img": 22, "begin": 1745429871, "end": 1745429909 }, "geometry": { "type": "LineString", "coordinates": [ [ -50.209313888888893, -29.984977777777779 ], [ -50.209397222222222, -29.984833333333334 ] ] } },
{ "type": "Feature", "properties": { "faixa_img": 22, "begin": 1745429871, "end": 1745429909 }, "geometry": { "type": "LineString", "coordinates": [ [ -50.209569444444448, -29.984872222222222 ], [ -50.209602777777782, -29.984966666666669 ], [ -50.209577777777781, -29.985063888888888 ] ] } }
]
}
